NORAD_CAT_ID,OBJECT_NAME,OBJECT_TYPE,EPOCH,MEAN_MOTION,ECCENTRICITY,INCLINATION,RA_OF_ASC_NODE,ARG_OF_PERICENTER,MEAN_ANOMALY,BSTAR,MEAN_MOTION_DOT,MEAN_MOTION_DDOT,TLE_LINE0,TLE_LINE1,TLE_LINE2,SEMIMAJOR_AXIS,PERIOD,APOGEE,PERIGEE,DECAYED
52832.0,STARLINK-4083,PAYLOAD,2024-02-17 17:48:50,15.08844468,0.0001241,53.2164,165.2545,100.2647,259.8485,5.0364e-05,5.14e-06,0.0,0 STARLINK-4083,1 52832U 22062C   24048.74225251  .00000514  00000-0  50364-4 0  9990,2 52832  53.2164 165.2545 0001241 100.2647 259.8485 15.08844468 92908,6917.867,95.437,540.59,538.873,0.0
52832.0,STARLINK-4083,PAYLOAD,2024-02-18 14:28:51,15.08843449,0.0001169,53.2158,161.3926,91.2608,268.8518,0.00011613,1.561e-05,0.0,0 STARLINK-4083,1 52832U 22062C   24049.60337200  .00001561  00000-0  11613-3 0  9990,2 52832  53.2158 161.3926 0001169  91.2608 268.8518 15.08843449 92541,6917.87,95.437,540.544,538.926,0.0
52832.0,STARLINK-4083,PAYLOAD,2024-02-18 17:39:36,15.0885535,0.0001193,53.2149,160.7934,85.6547,274.4581,0.00016067,2.271e-05,0.0,0 STARLINK-4083,1 52832U 22062C   24049.73584355  .00002271  00000-0  16067-3 0  9996,2 52832  53.2149 160.7934 0001193  85.6547 274.4581 15.08855350 92568,6917.833,95.437,540.524,538.873,0.0
52832.0,STARLINK-4083,PAYLOAD,2024-02-19 07:58:06,15.0882549,7.65e-05,53.2152,158.1171,82.2314,277.8765,-0.00015142,-2.696e-05,0.0,0 STARLINK-4083,1 52832U 22062C   24050.33202181 -.00002696  00000-0 -15142-3 0  9994,2 52832  53.2152 158.1171 0000765  82.2314 277.8765 15.08825490 93143,6917.925,95.438,540.319,539.261,0.0
52832.0,STARLINK-4083,PAYLOAD,2024-02-19 14:19:38,15.08837087,0.0001234,53.2149,156.929,107.1421,252.9707,2.238e-05,6.8e-07,0.0,0 STARLINK-4083,1 52832U 22062C   24050.59697682  .00000068  00000-0  22380-4 0  9998,2 52832  53.2149 156.9290 0001234 107.1421 252.9707 15.08837087 92699,6917.889,95.438,540.608,538.901,0.0
52832.0,STARLINK-4083,PAYLOAD,2024-02-19 17:30:24,15.08840244,0.0001199,53.215,156.3333,100.4933,259.6195,6.7989e-05,7.94e-06,0.0,0 STARLINK-4083,1 52832U 22062C   24050.72945594  .00000794  00000-0  67989-4 0  9991,2 52832  53.2150 156.3333 0001199 100.4933 259.6195 15.08840244 93209,6917.88,95.438,540.574,538.915,0.0
52832.0,STARLINK-4083,PAYLOAD,2024-02-20 14:10:25,15.08845469,0.000141,53.2157,152.4681,82.7232,277.392,4.234e-05,3.86e-06,0.0,0 STARLINK-4083,1 52832U 22062C   24051.59057581  .00000386  00000-0  42340-4 0  9998,2 52832  53.2157 152.4681 0001410  82.7232 277.3920 15.08845469 92845,6917.864,95.437,540.704,538.753,0.0
52832.0,STARLINK-4083,PAYLOAD,2024-02-21 12:25:50,15.0884279,0.0001567,53.2168,148.3075,95.9271,264.19,0.00014655,2.045e-05,0.0,0 STARLINK-4083,1 52832U 22062C   24052.51794043  .00002045  00000-0  14655-3 0  9993,2 52832  53.2168 148.3075 0001567  95.9271 264.1900 15.08842790 93476,6917.872,95.437,540.821,538.653,0.0
52832.0,STARLINK-4083,PAYLOAD,2024-02-22 12:16:37,15.08840844,0.0001509,53.2172,143.8469,95.9602,264.1562,6.6457e-05,7.7e-06,0.0,0 STARLINK-4083,1 52832U 22062C   24053.51154202  .00000770  00000-0  66457-4 0  9992,2 52832  53.2172 143.8469 0001509  95.9602 264.1562 15.08840844 93621,6917.878,95.438,540.787,538.699,0.0
52832.0,STARLINK-4083,PAYLOAD,2024-02-23 12:07:23,15.08848695,0.0001436,53.2162,139.3868,81.9443,278.1712,9.6465e-05,1.248e-05,0.0,0 STARLINK-4083,1 52832U 22062C   24054.50513747  .00001248  00000-0  96465-4 0  9998,2 52832  53.2162 139.3868 0001436  81.9443 278.1712 15.08848695 93286,6917.854,95.437,540.712,538.725,0.0
52832.0,STARLINK-4083,PAYLOAD,2024-02-23 15:18:09,15.08854281,0.0001573,53.2157,138.7891,87.6468,272.4704,0.00018677,2.687e-05,0.0,0 STARLINK-4083,1 52832U 22062C   24054.63761430  .00002687  00000-0  18677-3 0  9992,2 52832  53.2157 138.7891 0001573  87.6468 272.4704 15.08854281 93793,6917.837,95.437,540.79,538.614,0.0
52832.0,STARLINK-4083,PAYLOAD,2024-02-24 11:58:11,15.08840435,0.0001398,53.2159,134.9266,88.6953,271.42,7.4793e-05,9.03e-06,0.0,0 STARLINK-4083,1 52832U 22062C   24055.49874264  .00000903  00000-0  74793-4 0  9998,2 52832  53.2159 134.9266 0001398  88.6953 271.4200 15.08840435 93925,6917.879,95.438,540.711,538.777,0.0
52832.0,STARLINK-4083,PAYLOAD,2024-02-24 15:08:57,15.08843286,0.0001518,53.2162,134.3308,91.9226,268.194,0.00011406,1.528e-05,0.0,0 STARLINK-4083,1 52832U 22062C   24055.63122133  .00001528  00000-0  11406-3 0  9990,2 52832  53.2162 134.3308 0001518  91.9226 268.1940 15.08843286 93453,6917.87,95.437,540.785,538.685,0.0
52832.0,STARLINK-4083,PAYLOAD,2024-02-25 11:48:57,15.0885022,0.0001441,53.2156,130.4639,87.9083,272.2075,0.00015808,2.229e-05,0.0,0 STARLINK-4083,1 52832U 22062C   24056.49233747  .00002229  00000-0  15808-3 0  9998,2 52832  53.2156 130.4639 0001441  87.9083 272.2075 15.08850220 93586,6917.849,95.437,540.711,538.717,0.0
52832.0,STARLINK-4083,PAYLOAD,2024-02-25 21:21:16,15.08851457,0.0001505,53.2155,128.6802,87.7338,272.3827,0.00014651,2.045e-05,0.0,0 STARLINK-4083,1 52832U 22062C   24056.88977532  .00002045  00000-0  14651-3 0  9999,2 52832  53.2155 128.6802 0001505  87.7338 272.3827 15.08851457 93644,6917.845,95.437,540.752,538.669,0.0
52832.0,STARLINK-4083,PAYLOAD,2024-02-26 03:42:49,15.0884338,0.0001623,53.2167,127.4941,97.8278,262.2899,0.00019578,2.829e-05,0.0,0 STARLINK-4083,1 52832U 22062C   24057.15474042  .00002829  00000-0  19578-3 0  9991,2 52832  53.2167 127.4941 0001623  97.8278 262.2899 15.08843380 94176,6917.87,95.437,540.858,538.612,0.0
52832.0,STARLINK-4083,PAYLOAD,2024-02-26 13:15:08,15.08844244,0.0001644,53.2168,125.7079,87.3698,272.7482,0.00010791,1.43e-05,0.0,0 STARLINK-4083,1 52832U 22062C   24057.55217876  .00001430  00000-0  10791-3 0  9990,2 52832  53.2168 125.7079 0001644  87.3698 272.7482 15.08844244 93749,6917.867,95.437,540.87,538.595,0.0
52832.0,STARLINK-4083,PAYLOAD,2024-02-26 14:50:31,15.08846266,0.0001618,53.2163,125.4096,87.6696,272.4481,0.00013627,1.882e-05,0.0,0 STARLINK-4083,1 52832U 22062C   24057.61841743  .00001882  00000-0  13627-3 0  9995,2 52832  53.2163 125.4096 0001618  87.6696 272.4481 15.08846266 93755,6917.861,95.437,540.846,538.607,0.0
52832.0,STARLINK-4083,PAYLOAD,2024-02-27 03:33:37,15.08835387,0.0002212,53.2154,123.0299,83.8657,276.2587,5.9234e-06,-1.94e-06,0.0,0 STARLINK-4083,1 52832U 22062C   24058.14834599 -.00000194  00000-0  59234-5 0  9997,2 52832  53.2154 123.0299 0002212  83.8657 276.2587 15.08835387 94325,6917.894,95.438,541.29,538.229,0.0
52832.0,STARLINK-4083,PAYLOAD,2024-02-27 11:30:32,15.08834382,0.0001571,53.2156,121.5449,77.7327,282.3841,-8.5623e-05,-1.65e-05,0.0,0 STARLINK-4083,1 52832U 22062C   24058.47954704 -.00001650  00000-0 -85623-4 0  9993,2 52832  53.2156 121.5449 0001571  77.7327 282.3841 15.08834382 93885,6917.898,95.438,540.849,538.676,0.0
52832.0,STARLINK-4083,PAYLOAD,2024-02-27 21:02:51,15.0883766,0.0001528,53.216,119.7595,90.7674,269.3493,4.7194e-06,-2.13e-06,0.0,0 STARLINK-4083,1 52832U 22062C   24058.87698545 -.00000213  00000-0  47194-5 0  9990,2 52832  53.2160 119.7595 0001528  90.7674 269.3493 15.08837660 93940,6917.888,95.438,540.81,538.695,0.0
52832.0,STARLINK-4083,PAYLOAD,2024-02-28 12:56:42,15.08846889,0.0001584,53.2158,116.7851,88.6815,271.4359,0.00019388,2.8e-05,0.0,0 STARLINK-4083,1 52832U 22062C   24059.53938306  .00002800  00000-0  19388-3 0  9991,2 52832  53.2158 116.7851 0001584  88.6815 271.4359 15.08846889 94538,6917.859,95.437,540.82,538.629,0.0
52832.0,STARLINK-4083,PAYLOAD,2024-02-28 20:53:38,15.08837672,0.000177,53.2156,115.2958,79.1543,280.9648,4.2361e-05,3.86e-06,0.0,0 STARLINK-4083,1 52832U 22062C   24059.87058838  .00000386  00000-0  42361-4 0  9996,2 52832  53.2156 115.2958 0001770  79.1543 280.9648 15.08837672 94095,6917.888,95.438,540.977,538.528,0.0
52832.0,STARLINK-4083,PAYLOAD,2024-02-29 03:15:11,15.08835378,0.0001716,53.2152,114.1086,88.9628,271.1561,0.00016303,2.307e-05,0.0,0 STARLINK-4083,1 52832U 22062C   24060.13555144  .00002307  00000-0  16303-3 0  9990,2 52832  53.2152 114.1086 0001716  88.9628 271.1561 15.08835378 94629,6917.895,95.438,540.947,538.572,0.0
52832.0,STARLINK-4083,PAYLOAD,2024-02-29 12:47:30,15.0884281,0.0001543,53.2146,112.3228,84.884,275.2328,0.00017925,2.566e-05,0.0,0 STARLINK-4083,1 52832U 22062C   24060.53298842  .00002566  00000-0  17925-3 0  9991,2 52832  53.2146 112.3228 0001543  84.8840 275.2328 15.08842810 94196,6917.872,95.437,540.804,538.669,0.0
52832.0,STARLINK-4083,PAYLOAD,2024-02-29 20:44:25,15.08842144,0.0001554,53.2149,110.8374,84.1292,275.9878,0.00015473,2.176e-05,0.0,0 STARLINK-4083,1 52832U 22062C   24060.86418924  .00002176  00000-0  15473-3 0  9995,2 52832  53.2149 110.8374 0001554  84.1292 275.9878 15.08842144 94243,6917.874,95.437,540.814,538.664,0.0
52832.0,STARLINK-4083,PAYLOAD,2024-03-01 09:27:30,15.08848199,0.0001574,53.2142,108.4585,84.4557,275.6614,0.00021334,3.11e-05,0.0,0 STARLINK-4083,1 52832U 22062C   24061.39410682  .00003110  00000-0  21334-3 0  9999,2 52832  53.2142 108.4585 0001574  84.4557 275.6614 15.08848199 94322,6917.855,95.437,540.809,538.631,0.0
52832.0,STARLINK-4083,PAYLOAD,2024-03-02 07:42:54,15.08843223,0.0001575,53.2148,104.2943,87.8083,272.309,0.00027657,4.117e-05,0.0,0 STARLINK-4083,1 52832U 22062C   24062.32146888  .00004117  00000-0  27657-3 0  9999,2 52832  53.2148 104.2943 0001575  87.8083 272.3090 15.08843223 94956,6917.871,95.437,540.825,538.646,0.0
52832.0,STARLINK-4083,PAYLOAD,2024-03-03 02:47:32,15.08839513,0.0001568,53.2149,100.7269,86.7187,273.3985,4.9942e-05,5.07e-06,0.0,0 STARLINK-4083,1 52832U 22062C   24063.11634979  .00000507  00000-0  49942-4 0  9991,2 52832  53.2149 100.7269 0001568  86.7187 273.3985 15.08839513 95079,6917.882,95.438,540.832,538.662,0.0
52832.0,STARLINK-4083,PAYLOAD,2024-03-03 09:09:05,15.08839604,0.0001612,53.2161,99.5352,96.9886,263.129,3.2224e-05,2.25e-06,0.0,0 STARLINK-4083,1 52832U 22062C   24063.38131051  .00000225  00000-0  32224-4 0  9995,2 52832  53.2161  99.5352 0001612  96.9886 263.1290 15.08839604 94627,6917.882,95.438,540.862,538.631,0.0
